NORAD_CAT_ID,OBJECT_NAME,OBJECT_TYPE,EPOCH,MEAN_MOTION,ECCENTRICITY,INCLINATION,RA_OF_ASC_NODE,ARG_OF_PERICENTER,MEAN_ANOMALY,BSTAR,MEAN_MOTION_DOT,MEAN_MOTION_DDOT,TLE_LINE0,TLE_LINE1,TLE_LINE2,SEMIMAJOR_AXIS,PERIOD,APOGEE,PERIGEE,DECAYED
53928.0,STARLINK-5009,PAYLOAD,2024-02-26 06:01:55,15.08845055,0.0001548,53.2187,36.9545,94.162,265.9549,9.065e-05,1.155e-05,0.0,0 STARLINK-5009,1 53928U 22119AU  24057.25133155  .00001155  00000-0  90650-4 0  9991,2 53928  53.2187  36.9545 0001548  94.1620 265.9549 15.08845055 79464,6917.865,95.437,540.801,538.659,0.0
53928.0,STARLINK-5009,PAYLOAD,2024-02-27 02:41:56,15.08836028,0.000175,53.2191,33.0868,73.7906,286.3278,8.2187e-05,1.02e-05,0.0,0 STARLINK-5009,1 53928U 22119AU  24058.11246018  .00001020  00000-0  82187-4 0  9997,2 53928  53.2191  33.0868 0001750  73.7906 286.3278 15.08836028 79590,6917.893,95.438,540.968,538.547,0.0
53928.0,STARLINK-5009,PAYLOAD,2024-02-27 07:28:05,15.08842153,0.0001607,53.2187,32.1956,77.9689,282.1483,4.6138e-05,4.46e-06,0.0,0 STARLINK-5009,1 53928U 22119AU  24058.31117623  .00000446  00000-0  46138-4 0  9995,2 53928  53.2187  32.1956 0001607  77.9689 282.1483 15.08842153 80048,6917.874,95.437,540.851,538.627,0.0
53928.0,STARLINK-5009,PAYLOAD,2024-02-27 15:25:01,15.08839722,0.000146,53.2186,30.7079,88.0095,272.1064,2.232e-05,6.7e-07,0.0,0 STARLINK-5009,1 53928U 22119AU  24058.64237715  .00000067  00000-0  22320-4 0  9992,2 53928  53.2186  30.7079 0001460  88.0095 272.1064 15.08839722 80095,6917.881,95.438,540.756,538.736,0.0
53928.0,STARLINK-5009,PAYLOAD,2024-02-28 04:08:06,15.08841917,0.0001212,53.2171,28.327,92.9822,267.1309,9.0758e-05,1.157e-05,0.0,0 STARLINK-5009,1 53928U 22119AU  24059.17229270  .00001157  00000-0  90758-4 0  9999,2 53928  53.2171  28.3270 0001212  92.9822 267.1309 15.08841917 79758,6917.875,95.437,540.578,538.901,0.0
53928.0,STARLINK-5009,PAYLOAD,2024-02-28 15:15:48,15.08842913,0.0001304,53.2166,26.2456,87.6394,272.4748,-5.7383e-06,-3.79e-06,0.0,0 STARLINK-5009,1 53928U 22119AU  24059.63597445 -.00000379  00000-0 -57383-5 0  9997,2 53928  53.2166  26.2456 0001304  87.6394 272.4748 15.08842913 80241,6917.871,95.437,540.639,538.834,0.0
53928.0,STARLINK-5009,PAYLOAD,2024-02-29 03:58:53,15.08834433,0.000132,53.2169,23.8689,91.9268,268.1875,-8.9658e-06,-4.31e-06,0.0,0 STARLINK-5009,1 53928U 22119AU  24060.16590170 -.00000431  00000-0 -89658-5 0  9994,2 53928  53.2169  23.8689 0001320  91.9268 268.1875 15.08834433 79903,6917.897,95.438,540.676,538.849,0.0
53928.0,STARLINK-5009,PAYLOAD,2024-02-29 07:09:39,15.08839944,0.0001576,53.2192,23.2721,93.4189,266.6984,4.2369e-05,3.86e-06,0.0,0 STARLINK-5009,1 53928U 22119AU  24060.29837736  .00000386  00000-0  42369-4 0  9994,2 53928  53.2192  23.2721 0001576  93.4189 266.6984 15.08839944 79920,6917.881,95.438,540.836,538.655,0.0
53928.0,STARLINK-5009,PAYLOAD,2024-02-29 15:06:35,15.08838767,0.0001547,53.2197,21.7851,94.7248,265.3921,4.6971e-05,4.6e-06,0.0,0 STARLINK-5009,1 53928U 22119AU  24060.62957772  .00000460  00000-0  46971-4 0  9990,2 53928  53.2197  21.7851 0001547  94.7248 265.3921 15.08838767 80392,6917.884,95.438,540.819,538.679,0.0
53928.0,STARLINK-5009,PAYLOAD,2024-03-01 07:00:26,15.08858977,0.0001652,53.2192,18.8118,92.6585,267.4596,-7.0307e-05,-1.407e-05,0.0,0 STARLINK-5009,1 53928U 22119AU  24061.29196840 -.00001407  00000-0 -70307-4 0  9999,2 53928  53.2192  18.8118 0001652  92.6585 267.4596 15.08858977 80079,6917.822,95.436,540.83,538.545,0.0
53928.0,STARLINK-5009,PAYLOAD,2024-03-02 03:40:27,15.0881778,0.0001609,53.2186,14.9441,100.7093,259.408,0.00037052,5.61e-05,0.0,0 STARLINK-5009,1 53928U 22119AU  24062.15309790  .00005610  00000-0  37052-3 0  9992,2 53928  53.2186  14.9441 0001609 100.7093 259.4080 15.08817780 80206,6917.948,95.439,540.926,538.7,0.0
53928.0,STARLINK-5009,PAYLOAD,2024-03-03 03:31:14,15.0883685,0.0001353,53.2191,10.4907,88.4882,271.6265,3.0555e-05,1.98e-06,0.0,0 STARLINK-5009,1 53928U 22119AU  24063.14669933  .00000198  00000-0  30555-4 0  9998,2 53928  53.2191  10.4907 0001353  88.4882 271.6265 15.08836850 80350,6917.89,95.438,540.691,538.819,0.0
53928.0,STARLINK-5009,PAYLOAD,2024-03-04 01:46:38,15.08845995,0.0001387,53.2189,6.3291,109.9897,250.1245,-3.3786e-06,-3.42e-06,0.0,0 STARLINK-5009,1 53928U 22119AU  24064.07405566 -.00000342  00000-0 -33786-5 0  9994,2 53928  53.2189   6.3291 0001387 109.9897 250.1245 15.08845995 80494,6917.862,95.437,540.687,538.768,0.0
53928.0,STARLINK-5009,PAYLOAD,2024-03-04 12:54:19,15.08849679,0.000161,53.2181,4.2411,62.0587,298.0568,7.7401e-05,9.44e-06,0.0,0 STARLINK-5009,1 53928U 22119AU  24064.53772993  .00000944  00000-0  77401-4 0  9993,2 53928  53.2181   4.2411 0001610  62.0587 298.0568 15.08849679 80987,6917.851,95.437,540.83,538.602,0.0
53928.0,STARLINK-5009,PAYLOAD,2024-03-05 03:12:49,15.08834587,0.0001184,53.2177,1.5674,91.2369,268.8759,2.3587e-05,8.8e-07,0.0,0 STARLINK-5009,1 53928U 22119AU  24065.13390347  .00000088  00000-0  23587-4 0  9994,2 53928  53.2177   1.5674 0001184  91.2369 268.8759 15.08834587 80654,6917.897,95.438,540.581,538.943,0.0
53928.0,STARLINK-5009,PAYLOAD,2024-03-05 04:48:12,15.08837126,0.0001165,53.2176,1.2697,99.6356,260.4768,4.0569e-05,3.58e-06,0.0,0 STARLINK-5009,1 53928U 22119AU  24065.20014109  .00000358  00000-0  40569-4 0  9990,2 53928  53.2176   1.2697 0001165  99.6356 260.4768 15.08837126 81080,6917.889,95.438,540.56,538.948,0.0
53928.0,STARLINK-5009,PAYLOAD,2024-03-06 03:03:35,15.08853889,0.0001309,53.2186,357.1051,84.2158,275.8983,7.3876e-05,8.88e-06,0.0,0 STARLINK-5009,1 53928U 22119AU  24066.12749298  .00000888  00000-0  73876-4 0  9991,2 53928  53.2186 357.1051 0001309  84.2158 275.8983 15.08853889 80800,6917.838,95.437,540.608,538.797,0.0
53928.0,STARLINK-5009,PAYLOAD,2024-03-06 04:38:58,15.08854233,0.000135,53.2188,356.8075,83.7803,276.3343,7.6069e-05,9.23e-06,0.0,0 STARLINK-5009,1 53928U 22119AU  24066.19373222  .00000923  00000-0  76069-4 0  9995,2 53928  53.2188 356.8075 0001350  83.7803 276.3343 15.08854233 81239,6917.837,95.437,540.636,538.768,0.0
53928.0,STARLINK-5009,PAYLOAD,2024-03-07 01:19:00,15.08831996,0.0001264,53.2199,352.943,96.7363,263.3773,0.0001494,2.09e-05,0.0,0 STARLINK-5009,1 53928U 22119AU  24067.05486379  .00002090  00000-0  14940-3 0  9995,2 53928  53.2199 352.9430 0001264  96.7363 263.3773 15.08831996 80943,6917.905,95.438,540.644,538.895,0.0
53928.0,STARLINK-5009,PAYLOAD,2024-03-07 12:26:42,15.08832838,0.0001988,53.2196,350.8608,86.7295,273.3925,9.953e-07,-2.72e-06,0.0,0 STARLINK-5009,1 53928U 22119AU  24067.51855077 -.00000272  00000-0  99530-6 0  9993,2 53928  53.2196 350.8608 0001988  86.7295 273.3925 15.08832838 81431,6917.902,95.438,541.143,538.392,0.0
53928.0,STARLINK-5009,PAYLOAD,2024-03-08 04:20:33,15.08846459,0.0001574,53.2198,347.8853,90.0591,270.0581,-7.6953e-06,-4.11e-06,0.0,0 STARLINK-5009,1 53928U 22119AU  24068.18094175 -.00000411  00000-0 -76953-5 0  9990,2 53928  53.2198 347.8853 0001574  90.0591 270.0581 15.08846459 81110,6917.861,95.437,540.815,538.637,0.0
53928.0,STARLINK-5009,PAYLOAD,2024-03-09 04:11:21,15.0880751,0.000171,53.2195,343.4244,119.2251,240.8913,0.00050424,7.739e-05,0.0,0 STARLINK-5009,1 53928U 22119AU  24069.17454979  .00007739  00000-0  50424-3 0  9993,2 53928  53.2195 343.4244 0001710 119.2251 240.8913 15.08807510 81267,6917.98,95.44,541.028,538.662,0.0
53928.0,STARLINK-5009,PAYLOAD,2024-03-09 18:29:49,15.08836712,0.0001648,53.2195,340.7469,114.0072,246.1093,4.6007e-05,4.44e-06,0.0,0 STARLINK-5009,1 53928U 22119AU  24069.77070625  .00000444  00000-0  46007-4 0  9990,2 53928  53.2195 340.7469 0001648 114.0072 246.1093 15.08836712 81354,6917.89,95.438,540.896,538.615,0.0
53928.0,STARLINK-5009,PAYLOAD,2024-03-10 10:23:40,15.08840113,0.0001664,53.2199,337.7741,76.3419,283.7759,4.4035e-05,4.13e-06,0.0,0 STARLINK-5009,1 53928U 22119AU  24070.43310692  .00000413  00000-0  44035-4 0  9991,2 53928  53.2199 337.7741 0001664  76.3419 283.7759 15.08840113 81873,6917.88,95.438,540.896,538.594,0.0
53928.0,STARLINK-5009,PAYLOAD,2024-03-10 21:31:22,15.08837505,0.0001406,53.2185,335.6919,98.8267,261.2885,5.4186e-05,5.74e-06,0.0,0 STARLINK-5009,1 53928U 22119AU  24070.89678776  .00000574  00000-0  54186-4 0  9997,2 53928  53.2185 335.6919 0001406  98.8267 261.2885 15.08837505 81946,6917.888,95.438,540.726,538.78,0.0
53928.0,STARLINK-5009,PAYLOAD,2024-03-11 03:52:54,15.08846333,0.0001281,53.2176,334.5065,94.1247,265.9892,1.5497e-05,-4.1e-07,0.0,0 STARLINK-5009,1 53928U 22119AU  24071.16174395 -.00000041  00000-0  15497-4 0  9998,2 53928  53.2176 334.5065 0001281  94.1247 265.9892 15.08846333 81560,6917.861,95.437,540.612,538.84,0.0
53928.0,STARLINK-5009,PAYLOAD,2024-03-11 10:14:27,15.08842915,0.0001135,53.2166,333.3159,92.307,267.8052,1.3944e-05,-6.6e-07,0.0,0 STARLINK-5009,1 53928U 22119AU  24071.42670495 -.00000066  00000-0  13944-4 0  9991,2 53928  53.2166 333.3159 0001135  92.3070 267.8052 15.08842915 82025,6917.871,95.437,540.522,538.951,0.0
53928.0,STARLINK-5009,PAYLOAD,2024-03-12 03:43:42,15.08834418,0.0001763,53.2188,330.0462,86.6249,273.4945,3.0497e-05,1.97e-06,0.0,0 STARLINK-5009,1 53928U 22119AU  24072.15535486  .00000197  00000-0  30497-4 0  9998,2 53928  53.2188 330.0462 0001763  86.6249 273.4945 15.08834418 81719,6917.897,95.438,540.982,538.543,0.0
53928.0,STARLINK-5009,PAYLOAD,2024-03-12 10:05:15,15.08836359,0.0001799,53.2196,328.8567,82.1052,278.0144,4.7731e-05,4.72e-06,0.0,0 STARLINK-5009,1 53928U 22119AU  24072.42031409  .00000472  00000-0  47731-4 0  9999,2 53928  53.2196 328.8567 0001799  82.1052 278.0144 15.08836359 82170,6917.892,95.438,541.001,538.512,0.0
53928.0,STARLINK-5009,PAYLOAD,2024-03-13 09:56:02,15.08840298,0.0001228,53.2172,324.396,90.8847,269.2285,-1.3716e-05,-5.06e-06,0.0,0 STARLINK-5009,1 53928U 22119AU  24073.41391213 -.00000506  00000-0 -13716-4 0  9997,2 53928  53.2172 324.3960 0001228  90.8847 269.2285 15.08840298 81902,6917.879,95.438,540.594,538.895,0.0
